#dP2024  4  8  0  0  0.00000000      96 __u+U IGS20 FIT  IAC
## 2309  86400.00000000   900.00000000 60408 0.0000000000000
+  129   C01C02C03C04C05C06C07C08C09C10C11C12C13C14C16C19C20
+        C21C22C23C24C25C26C27C28C29C30C32C33C34C35C36C37C38
+        C39C40C41C42C43C44C45C46C60E02E03E04E05E07E08E09E10
+        E11E12E13E14E15E18E19E21E24E25E26E27E30E31E33E34E36
+        G01G02G03G04G05G06G07G08G09G10G11G12G13G14G15G16G17
+        G18G19G20G21G22G23G24G25G26G27G28G29G30G31G32J02J03
+        J04R01R02R03R04R05R06R07R08R09R10R11R12R13R14R15R16
+        R17R18R19R20R21R22R23R24R25R26  0  0  0  0  0  0  0
++         0 17 17 17 17  9  9 10 10  9  9  9  9  9  9  7  7
++         7  7  7  7  7  7  7  7  7  7  7  8  8  8  7  7  9
++         9  9  7  8  8  8  7  7 17  4  4  5  4  4  4  4  5
++         5  5  4  8  4  5  5  5  4  4  4  5  4  5  5  4  5
++         5  4  4  4  3  4  4  4  4  4  4  4  4  4  4  4  4
++         4  4  4  4  4  4  4  4  4  4  4  4  4  4  4 10 11
++        11  7  6  6  6  6 16  6  6  6 15  6  6  7  6  6  6
++         6  6  7  8  6  6 15  6  8  9  0  0  0  0  0  0  0
%c M  cc GPS ccc cccc cccc cccc cccc ccccc ccccc ccccc ccccc
%c cc cc ccc ccc cccc cccc cccc cccc ccccc ccccc ccccc ccccc
%f  0.0000000  0.000000000  0.00000000000  0.000000000000000
%f  0.0000000  0.000000000  0.00000000000  0.000000000000000
%i    0    0    0    0      0      0      0      0         0
%i    0    0    0    0      0      0      0      0         0
/* INFORMATION & ANALYSIS CENTER (IAC)            RAPID DATA
/* S/V CLOCKS ARE ALIGNED TO GNSS TIME                      
/* G:C1WC2W R:C1PC2P E:C1XC5X C:C2IC6I J:C1CC2S             
/* PCV:IGS20_2290 OL/AL:FES2004  NONE     YN ORB:CoN CLK:CoN
*  2024 04 08  5 30  0.00000000
PC01      0.000000      0.000000      0.000000 999999.999999
PC02   4438.008158  41852.982901  -1698.886055    583.371851
PC03 -14763.298126  39444.897918   -799.536795    136.441236
PC04 -39633.077418  14442.177746    236.311214   -108.159958
PC05  21889.697085  35963.621550  -1383.729032   -886.030387
PC06  -1283.728248  37529.849927 -18834.330220    330.299883
PC07 -12474.060480  26188.943538  30633.451258   -840.596910
PC08 -19498.664221  35450.337375 -12230.903599     -6.141401
PC09   2278.660452  39607.640694 -12835.355658   -732.202992
PC10  -2574.685071  27668.554712  32020.920721     10.492886
PC11  -4635.048659  17322.388467  21447.205879    501.065848
PC12 -18100.857072     26.657866  21274.170247   -227.897403
PC13 -12836.100363  35751.673910 -18415.682881    429.879301
PC14 -14998.753029  15051.823986 -18037.356816    592.894482
PC16  -4902.719336  34538.919055 -23141.168177   -445.070377
PC19   4751.540885 -16112.421027  22318.630835   -915.275950
PC20  21820.852887 -12259.100882  12398.510621   -338.118389
PC21 -27218.693694    501.218254   6075.638115   -962.415947
PC22 -16069.578643 -10960.239718  19999.218122    -46.348178
PC23   7121.254014  19567.151610  18581.286632   -775.536536
PC24 -16614.084788  18396.460327 -12855.528610    943.501814
PC25  -5856.658861  26948.429470   4323.430779    369.427637
PC26 -16904.321216     37.561573 -22226.446453   -274.177966
PC27  21302.637032   8256.452227 -16038.236345    295.980520
PC28  18562.528005  20767.083797  -1687.562649    226.185266
PC29  -4047.401679 -22101.044884 -16560.774949    265.309036
PC30  13138.077639  -9357.410946 -22782.209551    -51.983938
PC32  27230.108449   -707.606410  -6098.886816   -597.773333
PC33  -4700.581745  16149.238489 -22254.406845   -968.458466
PC34 -11976.811551  10756.335495  22778.898032    407.558926
PC35 -19239.586552 -20191.129577   1441.535476    392.142978
PC36   6643.949529 -26787.405208  -4082.896487     44.551779
PC37  16796.016958    741.546688  22278.102129   -955.024083
PC38 -22756.945847  35310.428695  -4286.206568    147.683199
PC39  -7338.823061  30983.537862 -27461.066680     -7.894688
PC40 -17551.922881  19387.458564  32998.846009    -64.470970
PC41  15366.128738  11286.848742 -20326.227959   -920.703881
PC42 -22905.631318  11544.682851 -10898.439516   -443.751596
PC43   3103.590303  21811.507697  17100.047028     67.178400
PC44 -21727.394803  -7578.097695  15793.157710    437.307549
PC45  -6992.137603 -19521.526561 -18670.003602    -79.289784
PC46  16342.533773 -18997.837055  12232.513181   -138.214923
PC60   7263.803845  41521.937294   -743.811134     -0.555024
PE02  15181.794235 -21883.484618 -12909.858091    117.719038
PE03   5523.722219 -16087.095512  24227.940033   -105.741857
PE04  15794.032457  19233.660384 -16013.944625   -368.494386
PE05  23166.228993  -3587.017757  18085.435092   4736.550830
PE07 -27309.099213 -11362.871814   -935.671120   -113.357747
PE08 -15082.246349 -19253.325157  16670.394272   -251.595993
PE09  27305.765056  11418.192076    858.137927   -399.383460
PE10  12560.930962  21606.951056 -15864.316103   -615.477783
PE11  15700.022862  11436.043583 -22340.718791   3070.786608
PE12   7878.978255  27455.308782  -7719.182026   -984.486608
PE13 -15527.057582 -12154.907959  22083.093344    -20.908614
PE14  30396.648419   5080.215606 -10071.672956      0.428491
PE15  -7570.317271 -27705.870439   7195.139534    -95.840469
PE18 -21785.046472  -3033.658878   8257.724508    526.467968
PE19  -7789.393718  14934.420796 -24326.016993   -283.356051
PE21 -25467.042317  14283.215224  -4867.396841   -588.124156
PE24  21098.889482   2418.923702  20590.960507   -695.557200
PE25  25537.648263 -14014.664877   5242.612478      3.087795
PE26 -14253.867106  10912.029966  23536.921692    419.597476
PE27 -21295.738039  -2029.314208 -20466.420900   -318.940576
PE30  -4442.393475 -17103.743341 -23760.542138   -176.648443
PE31   4615.280033  16958.405439  23817.955571    -20.276595
PE33  -5035.989715  26514.671114  12153.886052     10.124055
PE34   4665.567345 -26791.994605 -11693.703234   -104.459771
PE36  14277.898223 -10254.666887 -23817.740596   -210.366765
PG01 -11127.859831  13920.748788  19229.961941    178.591648
PG02 -15064.010196   2676.405886  22199.822865   -457.026650
PG03 -22752.798770  11505.206939   7065.176278    298.533116
PG04 -22285.749241    941.703177 -14503.504495    333.783405
PG05  19428.184839    -50.492610 -18325.190520   -168.347656
PG06   5465.802091  25663.630837  -3633.554892    331.988134
PG07  -6592.906462  21574.713795 -13127.193203   -102.476038
PG08 -25609.738237  -5216.239318   5764.736769    108.523366
PG09 -11597.954392  11426.065180 -21073.440565    152.700151
PG10   3309.411792 -18437.954210  18903.946705     -6.521553
PG11  11838.861234  18613.543074 -14805.263904   -630.342556
PG12  23548.890473  -9156.434795   7806.492561   -494.606255
PG13  22706.882676  14005.810647   -812.117518    640.938408
PG14  -7352.852391  19737.799524  16086.356482    370.875525
PG15  25948.619851   2438.910003   5139.378736    146.126122
PG16 -16807.804915  -5920.029113 -20168.717012   -322.040483
PG17   1670.694654  16767.889313  20913.374321    711.233008
PG18   6288.138736 -22217.457917 -12940.798340   -590.617577
PG19  11748.523256  18321.946704  15291.616254    465.174508
PG20  11591.213666  10069.187537 -21610.059274    380.975917
PG21 -16163.739206  -4034.846494  21333.402068    128.114760
PG22   -113.578762  17208.570339  20728.552401      3.746929
PG23  14333.263778 -20070.869648   9623.046510    195.783214
PG24  15825.118879   -287.068567  20948.961822   -456.769558
PG25  20182.770628 -17026.238786  -1006.761188    493.267014
PG26  -7013.397783 -14748.304523 -21048.925922    169.520386
PG27 -22643.352659 -13317.810120  -5543.255942    -17.284853
PG28  -5003.207333 -26071.395670   -917.510402   -194.826430
PG29  14461.445028  -8511.065905 -20666.795693   -602.547907
PG30    688.431124  26126.029705  -3688.587761   -408.382032
PG31 -10319.598298 -21684.041909 -11108.786611   -228.032854
PG32  -6024.120785 -17174.818436  19622.571527   -617.789246
PJ02 -30502.699621  28512.807452  11312.701993     -3.804059
PJ03 -26202.327217  24494.028023  27257.585444     -0.090398
PJ04 -32299.516362  21108.354452 -11889.418910     50.503476
PR01 -25325.074087   1643.770355  -2474.939304     81.878989
PR02 -16421.662408   7980.424627 -17791.517457    -22.694159
PR03   2054.737189  10809.105903 -22956.452017     97.844062
PR04  18802.746859   7529.609936 -15463.008402    231.069915
PR05  25492.357730    388.740914    374.102144    129.643998
PR06  14902.755273  -9150.135915  18560.087128   -158.125437
PR07  -3137.363904 -10812.304875  22939.578270     79.735917
PR08 -19034.319977  -7426.414506  15357.425791    -75.004901
PR09  14043.468368 -20833.503018   4669.371316    179.808629
PR10   6900.431559 -22223.210444 -10368.505623   -146.716381
PR11  -5332.542055 -11703.105606 -22023.300119     28.646566
PR12 -14944.020619   7256.539927 -19340.027429     38.743509
PR13 -14940.408439  19411.011751  -7139.532627    -46.079836
PR14  -5515.840524  21661.216072  12279.845921     26.346971
PR15   6390.327810  10422.101891  22402.757983     80.671868
PR16  14746.533739  -7141.153368  19569.888290     24.632780
PR17   7214.004970  22364.224173   9969.263684     76.081163
PR18  14219.859888  20106.572871  -6526.026646    136.101102
PR19  14236.502955   9603.685302 -18863.607396   -272.292888
PR20   5382.163081 -11361.988174 -22198.481413   -110.926809
PR21  -7056.327859 -22384.159068  -9970.740947    -91.005657
PR22 -14093.021301 -19876.309452   7603.675846    115.539357
PR23 -13688.646827  -5985.529970  20667.321112   -117.267090
PR24  -4964.399950  12256.760945  21827.400927    -50.970927
PR25  -6300.328835 -22721.961698  -9708.941618    -27.784508
PR26 -18191.347059  -7672.388865  16161.655876    -26.071406
EOF
